OBJECT_NAME,OBJECT_ID,EPOCH,MEAN_MOTION,ECCENTRICITY,INCLINATION,RA_OF_ASC_NODE,ARG_OF_PERICENTER,MEAN_ANOMALY,EPHEMERIS_TYPE,CLASSIFICATION_TYPE,NORAD_CAT_ID,ELEMENT_SET_NO,REV_AT_EPOCH,BSTAR,MEAN_MOTION_DOT,MEAN_MOTION_DDOT
STARLINK-3141,2021-104BD,2026-06-27T21:03:31.109760,15.08836253,.00013142,53.1624,84.3131,80.0544,280.0596,0,U,49459,999,25541,.28651768E-4,.168E-5,0
STARLINK-3140,2021-104BE,2026-06-27T11:25:54.305472,15.08838737,.0001215,53.1620,86.1156,93.0728,267.0403,0,U,49460,999,25534,-.13392766E-4,-.501E-5,0
STARLINK-3219,2021-115A,2026-06-28T00:00:02.000160,15.28126294,.00012808,53.1592,13.1061,51.3052,352.2029,0,U,49724,999,575,.42164397E-1,.1283152E-1,0
STARLINK-3218,2021-115B,2026-06-27T23:09:23.229216,15.08835581,.00012299,53.1602,14.0220,86.0816,274.0317,0,U,49725,999,25218,.72749978E-4,.87E-5,0
STARLINK-3242,2021-115D,2026-06-28T00:00:02.000160,15.12151073,.00009183,53.1609,23.7379,103.5081,345.8284,0,U,49727,999,576,.47583198E-2,.83663E-3,0
STARLINK-3240,2021-115E,2026-06-28T00:00:02.000160,15.17252086,.00022565,53.1607,23.6131,73.9181,59.5582,0,U,49728,999,576,.60790051E-2,.124266E-2,0
STARLINK-3251,2021-115F,2026-06-27T20:23:45.083904,15.08834346,.00012082,53.1613,24.3219,86.0989,274.0141,0,U,49729,999,25202,.33248403E-4,.241E-5,0
STARLINK-3249,2021-115G,2026-06-28T00:00:02.000160,15.15015359,.0000675,53.1590,23.8451,135.6367,176.3535,0,U,49730,999,580,.42031151E-2,.80023E-3,0
STARLINK-3246,2021-115J,2026-06-27T21:27:03.495744,15.09082479,.00012248,53.1609,24.3877,90.1052,270.0080,0,U,49732,999,25202,.17905129E-2,.28514E-3,0
STARLINK-3252,2021-115K,2026-06-27T20:55:34.735584,15.08836293,.00013371,53.1611,24.3354,96.0521,264.0623,0,U,49733,999,25202,-.27138292E-4,-.72E-5,0
STARLINK-3238,2021-115L,2026-06-28T00:00:02.000160,15.25619088,.00013041,53.1605,13.0983,105.4443,121.9190,0,U,49734,999,570,.45485309E-1,.1283606E-1,0
STARLINK-3113,2021-115M,2026-06-28T00:00:02.000160,15.15293695,.00013828,53.1604,23.5622,81.2917,338.3996,0,U,49735,999,581,.43012439E-2,.82577E-3,0
STARLINK-3148,2021-115N,2026-06-27T19:42:42.671808,15.08824003,.0001386,53.1608,14.4471,94.9192,265.1958,0,U,49736,999,25216,-.14255205E-4,-.515E-5,0
STARLINK-3225,2021-115P,2026-06-27T23:04:04.541088,15.08832856,.00014263,53.1617,13.9336,90.2984,269.8171,0,U,49737,999,25218,.22516637E-4,.7E-6,0
STARLINK-3143,2021-115Q,2026-06-27T22:11:33.925344,15.11376204,.00020139,53.2160,13.7982,123.0607,237.0580,0,U,49738,999,25218,.12888229E-2,.21769E-3,0
STARLINK-3155,2021-115R,2026-06-28T00:00:02.000160,15.16001797,.00005165,53.1608,23.6232,119.6259,228.0652,0,U,49739,999,570,.38800817E-2,.75906E-3,0
STARLINK-3226,2021-115S,2026-06-28T00:00:02.000160,15.25796899,.00017055,53.1589,13.0655,80.9145,28.7231,0,U,49740,999,566,.46116429E-1,.1310879E-1,0
STARLINK-3244,2021-115T,2026-06-27T22:00:01.999584,15.26146801,.00013134,53.1586,13.4232,71.8964,354.7242,0,U,49741,999,580,.4379535E-1,.1252787E-1,0
STARLINK-3202,2021-115U,2026-06-27T22:05:47.345568,15.08834414,.00013189,53.1606,14.1153,88.5702,271.5440,0,U,49742,999,25217,.9448243E-5,-.138E-5,0
STARLINK-3239,2021-115V,2026-06-27T22:00:01.999584,15.24370429,.0000902,53.1589,13.4981,51.0379,316.3384,0,U,49743,999,580,.47322847E-1,.1287135E-1,0
STARLINK-3231,2021-115W,2026-06-27T22:00:01.999584,15.25538650,.00005983,53.1594,13.3746,102.4687,228.5369,0,U,49744,999,579,.44815351E-1,.1259589E-1,0
STARLINK-3241,2021-115X,2026-06-27T22:00:01.999584,15.24534034,.00005909,53.1594,13.5357,96.4983,211.0921,0,U,49745,999,580,.47295828E-1,.1293298E-1,0
STARLINK-3233,2021-115Y,2026-06-27T22:26:59.054208,15.08835316,.00013261,53.1614,14.0503,86.7434,273.3709,0,U,49746,999,25217,.61369262E-4,.689E-5,0
STARLINK-3247,2021-115Z,2026-06-27T22:11:05.301888,15.08836026,.00011366,53.1607,14.0984,89.1059,271.0063,0,U,49747,999,25217,-.8804753E-5,-.428E-5,0
STARLINK-3248,2021-115AA,2026-06-27T20:03:49.911840,15.08829590,.00011921,53.1603,14.0700,86.8311,273.2817,0,U,49748,999,25217,.15292486E-4,-.45E-6,0
STARLINK-3250,2021-115AB,2026-06-27T22:00:01.999584,15.28348435,.00008858,53.1608,13.4709,105.4760,154.9549,0,U,49749,999,575,.38421586E-1,.1167424E-1,0
STARLINK-3236,2021-115AC,2026-06-27T22:00:01.999584,15.25908193,.00018667,53.1608,13.4711,88.4499,73.3719,0,U,49750,999,575,.45211194E-1,.1287197E-1,0
STARLINK-3229,2021-115AD,2026-06-27T22:21:40.030848,15.08839936,.00012557,53.1610,13.9899,87.1404,272.9731,0,U,49751,999,25218,.106503E-3,.1407E-4,0
STARLINK-3209,2021-115AE,2026-06-27T22:00:01.999584,15.18333759,.00013752,53.1601,3.9141,96.1426,111.6508,0,U,49752,999,570,.35506717E-2,.74225E-3,0
STARLINK-3200,2021-115AF,2026-06-27T22:42:52.687296,15.08837243,.00013366,53.1609,14.0007,85.7340,274.3805,0,U,49753,999,25218,.41513474E-4,.373E-5,0
