STARLINK-3141           
1 49459U 21104BD  26178.87744340  .00000168  00000+0  28652-4 0  9991
2 49459  53.1624  84.3131 0001314  80.0544 280.0596 15.08836253255412
STARLINK-3140           
1 49460U 21104BE  26178.47632298 -.00000501  00000+0 -13393-4 0  9996
2 49460  53.1620  86.1156 0001215  93.0728 267.0403 15.08838737255348
STARLINK-3219           
1 49724U 21115A   26179.00002315  .01283152  00000+0  42164-1 0  9991
2 49724  53.1592  13.1061 0001280  51.3052 352.2029 15.28126294  5752
STARLINK-3218           
1 49725U 21115B   26178.96485219  .00000870  00000+0  72750-4 0  9994
2 49725  53.1602  14.0220 0001229  86.0816 274.0317 15.08835581252184
STARLINK-3242           
1 49727U 21115D   26179.00002315  .00083663  00000+0  47583-2 0  9999
2 49727  53.1609  23.7379 0000918 103.5081 345.8284 15.12151073  5760
STARLINK-3240           
1 49728U 21115E   26179.00002315  .00124266  00000+0  60790-2 0  9990
2 49728  53.1607  23.6131 0002256  73.9181  59.5582 15.17252086  5763
STARLINK-3251           
1 49729U 21115F   26178.84982736  .00000241  00000+0  33248-4 0  9992
2 49729  53.1613  24.3219 0001208  86.0989 274.0141 15.08834346252026
STARLINK-3249           
1 49730U 21115G   26179.00002315  .00080023  00000+0  42031-2 0  9993
2 49730  53.1590  23.8451 0000675 135.6367 176.3535 15.15015359  5808
STARLINK-3246           
1 49732U 21115J   26178.89379046  .00028514  00000+0  17905-2 0  9998
2 49732  53.1609  24.3877 0001224  90.1052 270.0080 15.09082479252021
STARLINK-3252           
1 49733U 21115K   26178.87192981 -.00000720  00000+0 -27138-4 0  9990
2 49733  53.1611  24.3354 0001337  96.0521 264.0623 15.08836293252022
STARLINK-3238           
1 49734U 21115L   26179.00002315  .01283606  00000+0  45485-1 0  9995
2 49734  53.1605  13.0983 0001304 105.4443 121.9190 15.25619088  5702
STARLINK-3113           
1 49735U 21115M   26179.00002315  .00082577  00000+0  43012-2 0  9994
2 49735  53.1604  23.5622 0001382  81.2917 338.3996 15.15293695  5812
STARLINK-3148           
1 49736U 21115N   26178.82132722 -.00000515  00000+0 -14255-4 0  9993
2 49736  53.1608  14.4471 0001386  94.9192 265.1958 15.08824003252160
STARLINK-3225           
1 49737U 21115P   26178.96116367  .00000070  00000+0  22517-4 0  9990
2 49737  53.1617  13.9336 0001426  90.2984 269.8171 15.08832856252183
STARLINK-3143           
1 49738U 21115Q   26178.92469821  .00021769  00000+0  12888-2 0  9999
2 49738  53.2160  13.7982 0002013 123.0607 237.0580 15.11376204252188
STARLINK-3155           
1 49739U 21115R   26179.00002315  .00075906  00000+0  38801-2 0  9996
2 49739  53.1608  23.6232 0000516 119.6259 228.0652 15.16001797  5704
STARLINK-3226           
1 49740U 21115S   26179.00002315  .01310879  00000+0  46116-1 0  9997
2 49740  53.1589  13.0655 0001705  80.9145  28.7231 15.25796899  5668
STARLINK-3244           
1 49741U 21115T   26178.91668981  .01252787  00000+0  43795-1 0  9997
2 49741  53.1586  13.4232 0001313  71.8964 354.7242 15.26146801  5807
STARLINK-3202           
1 49742U 21115U   26178.92068687 -.00000138  00000+0  94482-5 0  9990
2 49742  53.1606  14.1153 0001318  88.5702 271.5440 15.08834414252175
STARLINK-3239           
1 49743U 21115V   26178.91668981  .01287135  00000+0  47323-1 0  9995
2 49743  53.1589  13.4981 0000902  51.0379 316.3384 15.24370429  5800
STARLINK-3231           
1 49744U 21115W   26178.91668981  .01259589  00000+0  44815-1 0  9991
2 49744  53.1594  13.3746 0000598 102.4687 228.5369 15.25538650  5797
STARLINK-3241           
1 49745U 21115X   26178.91668981  .01293298  00000+0  47296-1 0  9993
2 49745  53.1594  13.5357 0000590  96.4983 211.0921 15.24534034  5805
STARLINK-3233           
1 49746U 21115Y   26178.93540572  .00000689  00000+0  61369-4 0  9990
2 49746  53.1614  14.0503 0001326  86.7434 273.3709 15.08835316252177
STARLINK-3247           
1 49747U 21115Z   26178.92436692 -.00000428  00000+0 -88048-5 0  9994
2 49747  53.1607  14.0984 0001136  89.1059 271.0063 15.08836026252179
STARLINK-3248           
1 49748U 21115AA  26178.83599435 -.00000045  00000+0  15292-4 0  9994
2 49748  53.1603  14.0700 0001192  86.8311 273.2817 15.08829590252178
STARLINK-3250           
1 49749U 21115AB  26178.91668981  .01167424  00000+0  38422-1 0  9999
2 49749  53.1608  13.4709 0000885 105.4760 154.9549 15.28348435  5753
STARLINK-3236           
1 49750U 21115AC  26178.91668981  .01287197  00000+0  45211-1 0  9995
2 49750  53.1608  13.4711 0001866  88.4499  73.3719 15.25908193  5750
STARLINK-3229           
1 49751U 21115AD  26178.93171332  .00001407  00000+0  10650-3 0  9995
2 49751  53.1610  13.9899 0001255  87.1404 272.9731 15.08839936252181
STARLINK-3209           
1 49752U 21115AE  26178.91668981  .00074225  00000+0  35507-2 0  9990
2 49752  53.1601   3.9141 0001375  96.1426 111.6508 15.18333759  5706
STARLINK-3200           
1 49753U 21115AF  26178.94644314  .00000373  00000+0  41513-4 0  9997
2 49753  53.1609  14.0007 0001336  85.7340 274.3805 15.08837243252184
